NORAD_CAT_ID,OBJECT_NAME,OBJECT_TYPE,EPOCH,MEAN_MOTION,ECCENTRICITY,INCLINATION,RA_OF_ASC_NODE,ARG_OF_PERICENTER,MEAN_ANOMALY,BSTAR,MEAN_MOTION_DOT,MEAN_MOTION_DDOT,TLE_LINE0,TLE_LINE1,TLE_LINE2,SEMIMAJOR_AXIS,PERIOD,APOGEE,PERIGEE,DECAYED
52003.0,STARLINK-3654,PAYLOAD,2022-04-02 12:00:00,15.73155829,9.09e-05,53.2191,21.2584,108.1402,333.3993,-6.0629e-05,-9.102e-05,0.0,0 STARLINK-3654,1 52003U 22025AZ  22092.50001157 -.00009102  00000-0 -60629-4 0  9996,2 52003  53.2191  21.2584 0000909 108.1402 333.3993 15.73155829  5036,6728.021,91.536,350.49800000000016,349.275,0.0
52003.0,STARLINK-3654,PAYLOAD,2022-04-02 20:00:01,15.73195518,0.0001194,53.2196,19.6085,111.722,58.6836,-7.1276e-05,-0.00010608,0.0,0 STARLINK-3654,1 52003U 22025AZ  22092.83334491 -.00010608  00000-0 -71276-4 0  9995,2 52003  53.2196  19.6085 0001194 111.7220  58.6836 15.73195518  5080,6727.908,91.533,350.576,348.97,0.0
52003.0,STARLINK-3654,PAYLOAD,2022-04-02 22:00:01,15.73205801,0.0001161,53.2196,19.1967,108.7902,173.908,-0.0002689,-0.00038195,0.0,0 STARLINK-3654,1 52003U 22025AZ  22092.91668981 -.00038195  00000-0 -26890-3 0  9990,2 52003  53.2196  19.1967 0001161 108.7902 173.9080 15.73205801  3718,6727.879,91.533,350.525,348.963,0.0
52003.0,STARLINK-3654,PAYLOAD,2022-04-03 12:00:00,15.73147662,0.0001145,53.2192,16.3105,108.3715,239.8089,-8.201299999999999e-05,-0.00012087,0.0,0 STARLINK-3654,1 52003U 22025AZ  22093.50001157 -.00012087  00000-0 -82013-4 0  9994,2 52003  53.2192  16.3105 0001145 108.3715 239.8089 15.73147662  5192,6728.044,91.536,350.68,349.139,0.0
52003.0,STARLINK-3654,PAYLOAD,2022-04-03 22:00:00,15.73165976,0.0001193,53.2192,14.2494,109.6958,79.5383,0.00036016,0.00050154,0.0,0 STARLINK-3654,1 52003U 22025AZ  22093.91667824  .00050154  00000-0  36016-3 0  9994,2 52003  53.2192  14.2494 0001193 109.6958  79.5383 15.73165976  3693,6727.9919999999975,91.535,350.66,349.055,0.0
52003.0,STARLINK-3654,PAYLOAD,2022-04-04 04:00:00,15.73189372,0.0001047,53.2191,13.0139,102.4565,63.4436,0.00011945,0.00016169,0.0,0 STARLINK-3654,1 52003U 22025AZ  22094.16667824  .00016169  00000-0  11945-3 0  9994,2 52003  53.2191  13.0139 0001047 102.4565  63.4436 15.73189372  5293,6727.925,91.534,350.495,349.086,0.0
52003.0,STARLINK-3654,PAYLOAD,2022-04-04 14:00:01,15.731732,9.36e-05,53.2185,10.95,122.4667,244.6127,0.00071486,0.001008,0.0,0 STARLINK-3654,1 52003U 22025AZ  22094.58334491  .00100800  00000-0  71486-3 0  9993,2 52003  53.2185  10.9500 0000936 122.4667 244.6127 15.73173200  3702,6727.972,91.535,350.466,349.207,0.0
52003.0,STARLINK-3654,PAYLOAD,2022-04-04 22:00:00,15.73243668,0.0001054,53.2181,9.3014,113.7161,342.3038,-0.00019453,-0.00027881,0.0,0 STARLINK-3654,1 52003U 22025AZ  22094.91667824 -.00027881  00000-0 -19453-3 0  9994,2 52003  53.2181   9.3014 0001054 113.7161 342.3038 15.73243668  3718,6727.771,91.531,350.345,348.927,0.0
52003.0,STARLINK-3654,PAYLOAD,2022-04-05 04:00:00,15.73213186,0.0001111,53.2176,8.0656,100.6424,332.1083,0.00039945,0.00055845,0.0,0 STARLINK-3654,1 52003U 22025AZ  22095.16667824  .00055845  00000-0  39945-3 0  9999,2 52003  53.2176   8.0656 0001111 100.6424 332.1083 15.73213186  5453,6727.858,91.532,350.47,348.975,0.0
52003.0,STARLINK-3654,PAYLOAD,2022-04-05 14:00:01,15.73204106,0.000128,53.2175,5.9849,106.8645,167.0401,6.388400000000001e-06,2.77e-06,0.0,0 STARLINK-3654,1 52003U 22025AZ  22095.58335648  .00000277  00000-0  63884-5 0  9991,2 52003  53.2175   5.9849 0001280 106.8645 167.0401 15.73204106  5521,6727.8830000000025,91.533,350.61,348.88699999999994,0.0
52003.0,STARLINK-3654,PAYLOAD,2022-04-05 22:00:00,15.73206529,0.0001230999999999,53.2176,4.3365,105.082,257.6896,-2.8035e-05,-4.553e-05,0.0,0 STARLINK-3654,1 52003U 22025AZ  22095.91667824 -.00004553  00000-0 -28035-4 0  9993,2 52003  53.2176   4.3365 0001231 105.0820 257.6896 15.73206529  3770,6727.877,91.533,350.57,348.913,0.0
52003.0,STARLINK-3654,PAYLOAD,2022-04-06 14:00:01,15.73202052,0.0001074,53.2184,1.0529,120.7307,60.1608,0.00012399,0.00016818,0.0,0 STARLINK-3654,1 52003U 22025AZ  22096.58334491  .00016818  00000-0  12399-3 0  9998,2 52003  53.2184   1.0529 0001074 120.7307  60.1608 15.73202052  5670,6727.889,91.533,350.477,349.032,0.0
52003.0,STARLINK-3654,PAYLOAD,2022-04-06 22:00:00,15.73225111,0.0001106,53.2187,359.4046,114.8024,155.025,-0.00013553,-0.00019616,0.0,0 STARLINK-3654,1 52003U 22025AZ  22096.91667824 -.00019616  00000-0 -13553-3 0  9998,2 52003  53.2187 359.4046 0001106 114.8024 155.0250 15.73225111  3758,6727.824000000001,91.532,350.43300000000005,348.944,0.0
52003.0,STARLINK-3654,PAYLOAD,2022-04-07 14:00:01,15.73232285,9.97e-05,53.2184,356.1045,122.7366,324.9685,-0.00019098,-0.00027371,0.0,0 STARLINK-3654,1 52003U 22025AZ  22097.58334491 -.00027371  00000-0 -19098-3 0  9990,2 52003  53.2184 356.1045 0000997 122.7366 324.9685 15.73232285  3706,6727.803000000001,91.531,350.339,348.997,0.0
52003.0,STARLINK-3654,PAYLOAD,2022-04-07 20:00:01,15.73229914,9.95e-05,53.2186,354.8683,121.1421,303.281,-0.00057801,-0.00081062,0.0,0 STARLINK-3654,1 52003U 22025AZ  22097.83334491 -.00081062  00000-0 -57801-3 0  9999,2 52003  53.2186 354.8683 0000995 121.1421 303.2810 15.73229914  5879,6727.81,91.531,350.344,349.005,0.0
52003.0,STARLINK-3654,PAYLOAD,2022-04-07 22:00:00,15.73198627,9.47e-05,53.2184,354.4565,115.737,60.9291,-0.00024544,-0.00034919,0.0,0 STARLINK-3654,1 52003U 22025AZ  22097.91667824 -.00034919  00000-0 -24544-3 0  9994,2 52003  53.2184 354.4565 0000947 115.7370  60.9291 15.73198627  3684,6727.899,91.533,350.401,349.12699999999984,0.0
52003.0,STARLINK-3654,PAYLOAD,2022-04-08 06:00:00,15.73211197,8.159999999999999e-05,53.2178,352.8076,114.1373,151.4271,-4.3006e-05,-6.653e-05,0.0,0 STARLINK-3654,1 52003U 22025AZ  22098.25001157 -.00006653  00000-0 -43006-4 0  9992,2 52003  53.2178 352.8076 0000816 114.1373 151.4271 15.73211197  5940,6727.863,91.533,350.277,349.17900000000014,0.0
52003.0,STARLINK-3654,PAYLOAD,2022-04-08 12:00:00,15.73205121,9.93e-05,53.2183,351.5688,123.1629,119.1414,0.00016646,0.0002281,0.0,0 STARLINK-3654,1 52003U 22025AZ  22098.50001157  .00022810  00000-0  16646-3 0  9990,2 52003  53.2183 351.5688 0000993 123.1629 119.1414 15.73205121  5985,6727.880999999999,91.533,350.414,349.077,0.0
52003.0,STARLINK-3654,PAYLOAD,2022-04-08 14:00:03,15.73197071,0.0001064,53.2181,351.1559,124.1717,230.5045,0.00027125,0.00037614,0.0,0 STARLINK-3654,1 52003U 22025AZ  22098.58336806  .00037614  00000-0  27125-3 0  9992,2 52003  53.2181 351.1559 0001064 124.1717 230.5045 15.73197071  3705,6727.904,91.533,350.4840000000001,349.05300000000005,0.0
52003.0,STARLINK-3654,PAYLOAD,2022-04-08 22:00:00,15.73195736,0.0001173,53.2184,349.5082,110.6895,332.7677,0.00063035,0.00088768,0.0,0 STARLINK-3654,1 52003U 22025AZ  22098.91667824  .00088768  00000-0  63035-3 0  9992,2 52003  53.2184 349.5082 0001173 110.6895 332.7677 15.73195736  3676,6727.906999999997,91.533,350.56199999999984,348.983,0.0
52003.0,STARLINK-3654,PAYLOAD,2022-04-09 04:00:00,15.73276799,0.0001117,53.2183,348.2718,103.0986,317.0671,-0.00078904,-0.00110275,0.0,0 STARLINK-3654,1 52003U 22025AZ  22099.16667824 -.00110275  00000-0 -78904-3 0  9992,2 52003  53.2183 348.2718 0001117 103.0986 317.0671 15.73276799  6089,6727.676,91.529,350.293,348.79,0.0
52003.0,STARLINK-3654,PAYLOAD,2022-04-09 14:00:01,15.73123189,0.0001281999999999,53.2182,346.2077,116.7798,144.5957,0.00016362,0.00022329,0.0,0 STARLINK-3654,1 52003U 22025AZ  22099.58334491  .00022329  00000-0  16362-3 0  9999,2 52003  53.2182 346.2077 0001282 116.7798 144.5957 15.73123189  3710,6728.114000000001,91.538,350.842,349.117,0.0
52003.0,STARLINK-3654,PAYLOAD,2022-04-09 20:00:01,15.73150432,0.0001135,53.2183,344.972,115.6729,122.347,0.00027063,0.0003745,0.0,0 STARLINK-3654,1 52003U 22025AZ  22099.83334491  .00037450  00000-0  27063-3 0  9998,2 52003  53.2183 344.9720 0001135 115.6729 122.3470 15.73150432  6190,6728.036,91.536,350.665,349.13800000000015,0.0
52003.0,STARLINK-3654,PAYLOAD,2022-04-09 22:00:00,15.73157016,0.0001101,53.2181,344.5602,111.863,238.3743,0.0002797,0.00038743,0.0,0 STARLINK-3654,1 52003U 22025AZ  22099.91667824  .00038743  00000-0  27970-3 0  9999,2 52003  53.2181 344.5602 0001101 111.8630 238.3743 15.73157016  3705,6728.018,91.536,350.62300000000016,349.142,0.0
52003.0,STARLINK-3654,PAYLOAD,2022-04-10 04:00:00,15.7317209,9.33e-05,53.2177,343.3239,109.0624,217.8532,0.00076728,0.0010833,0.0,0 STARLINK-3654,1 52003U 22025AZ  22100.16667824  .00108330  00000-0  76728-3 0  9994,2 52003  53.2177 343.3239 0000933 109.0624 217.8532 15.73172090  6246,6727.975,91.535,350.467,349.212,0.0
52003.0,STARLINK-3654,PAYLOAD,2022-04-10 14:00:01,15.73243036,0.0001041,53.2178,341.2596,127.9519,40.1506,-0.00022153,-0.00031649,0.0,0 STARLINK-3654,1 52003U 22025AZ  22100.58334491 -.00031649  00000-0 -22153-3 0  9994,2 52003  53.2178 341.2596 0001041 127.9519  40.1506 15.73243036  6307,6727.772,91.531,350.338,348.93699999999984,0.0
52003.0,STARLINK-3654,PAYLOAD,2022-04-10 22:00:00,15.73232721,0.0001092,53.2181,339.612,112.4476,144.6444,-0.00060525,-0.00084827,0.0,0 STARLINK-3654,1 52003U 22025AZ  22100.91667824 -.00084827  00000-0 -60525-3 0  9991,2 52003  53.2181 339.6120 0001092 112.4476 144.6444 15.73232721  3714,6727.802,91.531,350.402,348.932,0.0
52003.0,STARLINK-3654,PAYLOAD,2022-04-11 14:00:01,15.73200102,0.0001334,53.218,336.3116,115.6459,319.2193,-0.00022491,-0.00032064,0.0,0 STARLINK-3654,1 52003U 22025AZ  22101.58334491 -.00032064  00000-0 -22491-3 0  9992,2 52003  53.2180 336.3116 0001334 115.6459 319.2193 15.73200102  3705,6727.895,91.533,350.657,348.862,0.0
52003.0,STARLINK-3654,PAYLOAD,2022-04-11 20:00:01,15.73200275,0.0001211,53.2179,335.0761,112.0936,299.4697,-0.00078841,-0.00109834,0.0,0 STARLINK-3654,1 52003U 22025AZ  22101.83334491 -.00109834  00000-0 -78841-3 0  9990,2 52003  53.2179 335.0761 0001211 112.0936 299.4697 15.73200275  6500,6727.894,91.533,350.574,348.945,0.0
